BRO-1                   
1 44495U 19054A   26185.42881837  .00681202  22145-3  11886-2 0  9990
2 44495  44.9862 185.1747 0009787  83.1782 277.0242 16.01297204382496
BRO-5                   
1 51061U 22002CF  26186.28776435  .00037060  00000+0  69754-3 0  9993
2 51061  97.2981 260.1285 0004338 241.6617 118.4197 15.48443634249053
BRO-6                   
1 52422U 22047AE  26186.26516588  .00051417  00000+0  85360-3 0  9996
2 52422  97.3392 277.6828 0003390   4.0024 356.1255 15.51944472233956
BRO-8                   
1 55011U 23001C   26186.25837228  .00039733  00000+0  70125-3 0  9990
2 55011  97.3189 251.7158 0005907  72.8114 287.3784 15.50260707195001
BRO-11                  
1 58264U 23174J   26186.26278843  .00005962  00000+0  22375-3 0  9998
2 58264  97.3895 262.9424 0011552 138.2284 221.9839 15.27528594147519
BRO-13                  
1 59107U 24043K   26186.34487362  .00000745  00000+0  70619-4 0  9997
2 59107  97.8517 317.4235 0007835 302.9676  57.0791 14.96636297127330
BRO-12                  
1 59108U 24043L   26186.33803037  .00000787  00000+0  73781-4 0  9997
2 59108  97.8508 317.5836 0007014 298.3713  61.6801 14.96883443127350
BRO-14                  
1 60551U 24149CM  26185.65038792  .00001378  00000+0  12717-3 0  9998
2 60551  97.6870 261.1145 0007743  48.3161 311.8722 14.96223989102606
BRO-15                  
1 60553U 24149CP  26186.16803507  .00004309  00000+0  38676-3 0  9990
2 60553  97.6814 261.2074 0008804  34.7524 325.4271 14.96220515102690
BRO-16                  
1 62654U 25009AX  26186.20066990  .00005257  00000+0  21948-3 0  9999
2 62654  97.4051 266.4641 0001151 177.7637 182.3606 15.24078884 81547
BRO-18                  
1 64550U 25135Y   26186.26503934  .00005869  00000+0  25923-3 0  9992
2 64550  97.4648 301.1566 0002044 127.0265 233.1158 15.22115642 57627
BRO-17                  
1 66672U 25276G   26186.24337430  .00004811  00000+0  23903-3 0  9991
2 66672  97.4180 259.0047 0005236 305.5808  54.4938 15.18116830 33137
BRO-20                  
1 66674U 25276J   26186.15460171  .00004915  00000+0  24297-3 0  9994
2 66674  97.4161 258.9063 0004901 310.2162  49.8643 15.18285181 33124
BRO-19                  
1 68422U 26067G   26185.31008956  .00004076  00000+0  19843-3 0  9991
2 68422  97.4479 143.5223 0002060 117.4318 242.7126 15.18930459 14540
BRO-21                  
1 69007U 26100AD  26185.68486236  .00003862  00000+0  17417-3 0  9997
2 69007  97.4021  83.2927 0007988   7.5610 352.5745 15.21585231  9462
BRO-22                  
1 69504U 26132C   26186.16670559  .00001717  00000+0  14333-3 0  9992
2 69504  97.6837 249.6168 0015508 217.5244 142.4898 14.99790448  3471
