{"fetched_at":"2026-07-05T17:36:18.306Z","source":"https://celestrak.org/NORAD/elements/gp.php?NAME=BRO&FORMAT=JSON","constellation":"unseenlabs","records":[{"OBJECT_NAME":"BRO-1","OBJECT_ID":"2019-054A","EPOCH":"2026-07-04T10:17:29.907168","CLASSIFICATION_TYPE":"U","MEAN_MOTION":16.01297204,"ECCENTRICITY":0.00097879,"INCLINATION":44.9862,"RA_OF_ASC_NODE":185.1747,"ARG_OF_PERICENTER":83.1782,"MEAN_ANOMALY":277.0242,"EPHEMERIS_TYPE":0,"NORAD_CAT_ID":44495,"ELEMENT_SET_NO":999,"REV_AT_EPOCH":38249,"BSTAR":0.0011886265,"MEAN_MOTION_DOT":0.00681202,"MEAN_MOTION_DDOT":0.00022144642},{"OBJECT_NAME":"BRO-5","OBJECT_ID":"2022-002CF","EPOCH":"2026-07-05T06:54:22.839840","CLASSIFICATION_TYPE":"U","MEAN_MOTION":15.48443634,"ECCENTRICITY":0.00043384,"INCLINATION":97.2981,"RA_OF_ASC_NODE":260.1285,"ARG_OF_PERICENTER":241.6617,"MEAN_ANOMALY":118.4197,"EPHEMERIS_TYPE":0,"NORAD_CAT_ID":51061,"ELEMENT_SET_NO":999,"REV_AT_EPOCH":24905,"BSTAR":0.00069754151,"MEAN_MOTION_DOT":0.0003706,"MEAN_MOTION_DDOT":0},{"OBJECT_NAME":"BRO-6","OBJECT_ID":"2022-047AE","EPOCH":"2026-07-05T06:21:50.332032","CLASSIFICATION_TYPE":"U","MEAN_MOTION":15.51944472,"ECCENTRICITY":0.00033901,"INCLINATION":97.3392,"RA_OF_ASC_NODE":277.6828,"ARG_OF_PERICENTER":4.0024,"MEAN_ANOMALY":356.1255,"EPHEMERIS_TYPE":0,"NORAD_CAT_ID":52422,"ELEMENT_SET_NO":999,"REV_AT_EPOCH":23395,"BSTAR":0.00085359932,"MEAN_MOTION_DOT":0.00051417,"MEAN_MOTION_DDOT":0},{"OBJECT_NAME":"BRO-8","OBJECT_ID":"2023-001C","EPOCH":"2026-07-05T06:12:03.364992","CLASSIFICATION_TYPE":"U","MEAN_MOTION":15.50260707,"ECCENTRICITY":0.00059076,"INCLINATION":97.3189,"RA_OF_ASC_NODE":251.7158,"ARG_OF_PERICENTER":72.8114,"MEAN_ANOMALY":287.3784,"EPHEMERIS_TYPE":0,"NORAD_CAT_ID":55011,"ELEMENT_SET_NO":999,"REV_AT_EPOCH":19500,"BSTAR":0.00070125165,"MEAN_MOTION_DOT":0.00039733,"MEAN_MOTION_DDOT":0},{"OBJECT_NAME":"BRO-11","OBJECT_ID":"2023-174J","EPOCH":"2026-07-05T06:18:24.920352","CLASSIFICATION_TYPE":"U","MEAN_MOTION":15.27528594,"ECCENTRICITY":0.00115529,"INCLINATION":97.3895,"RA_OF_ASC_NODE":262.9424,"ARG_OF_PERICENTER":138.2284,"MEAN_ANOMALY":221.9839,"EPHEMERIS_TYPE":0,"NORAD_CAT_ID":58264,"ELEMENT_SET_NO":999,"REV_AT_EPOCH":14751,"BSTAR":0.00022374976,"MEAN_MOTION_DOT":0.00005962,"MEAN_MOTION_DDOT":0},{"OBJECT_NAME":"BRO-13","OBJECT_ID":"2024-043K","EPOCH":"2026-07-05T08:16:37.080768","CLASSIFICATION_TYPE":"U","MEAN_MOTION":14.96636297,"ECCENTRICITY":0.00078355,"INCLINATION":97.8517,"RA_OF_ASC_NODE":317.4235,"ARG_OF_PERICENTER":302.9676,"MEAN_ANOMALY":57.0791,"EPHEMERIS_TYPE":0,"NORAD_CAT_ID":59107,"ELEMENT_SET_NO":999,"REV_AT_EPOCH":12733,"BSTAR":0.000070619487,"MEAN_MOTION_DOT":0.00000745,"MEAN_MOTION_DDOT":0},{"OBJECT_NAME":"BRO-12","OBJECT_ID":"2024-043L","EPOCH":"2026-07-05T08:06:45.823968","CLASSIFICATION_TYPE":"U","MEAN_MOTION":14.96883443,"ECCENTRICITY":0.00070144,"INCLINATION":97.8508,"RA_OF_ASC_NODE":317.5836,"ARG_OF_PERICENTER":298.3713,"MEAN_ANOMALY":61.6801,"EPHEMERIS_TYPE":0,"NORAD_CAT_ID":59108,"ELEMENT_SET_NO":999,"REV_AT_EPOCH":12735,"BSTAR":0.000073781496,"MEAN_MOTION_DOT":0.00000787,"MEAN_MOTION_DDOT":0},{"OBJECT_NAME":"BRO-14","OBJECT_ID":"2024-149CM","EPOCH":"2026-07-04T15:36:33.516288","CLASSIFICATION_TYPE":"U","MEAN_MOTION":14.96223989,"ECCENTRICITY":0.00077434,"INCLINATION":97.687,"RA_OF_ASC_NODE":261.1145,"ARG_OF_PERICENTER":48.3161,"MEAN_ANOMALY":311.8722,"EPHEMERIS_TYPE":0,"NORAD_CAT_ID":60551,"ELEMENT_SET_NO":999,"REV_AT_EPOCH":10260,"BSTAR":0.0001271669,"MEAN_MOTION_DOT":0.00001378,"MEAN_MOTION_DDOT":0},{"OBJECT_NAME":"BRO-15","OBJECT_ID":"2024-149CP","EPOCH":"2026-07-05T04:01:58.230048","CLASSIFICATION_TYPE":"U","MEAN_MOTION":14.96220515,"ECCENTRICITY":0.00088049,"INCLINATION":97.6814,"RA_OF_ASC_NODE":261.2074,"ARG_OF_PERICENTER":34.7524,"MEAN_ANOMALY":325.4271,"EPHEMERIS_TYPE":0,"NORAD_CAT_ID":60553,"ELEMENT_SET_NO":999,"REV_AT_EPOCH":10269,"BSTAR":0.00038676411,"MEAN_MOTION_DOT":0.00004309,"MEAN_MOTION_DDOT":0},{"OBJECT_NAME":"BRO-16","OBJECT_ID":"2025-009AX","EPOCH":"2026-07-05T04:48:57.879360","CLASSIFICATION_TYPE":"U","MEAN_MOTION":15.24078884,"ECCENTRICITY":0.0001151,"INCLINATION":97.4051,"RA_OF_ASC_NODE":266.4641,"ARG_OF_PERICENTER":177.7637,"MEAN_ANOMALY":182.3606,"EPHEMERIS_TYPE":0,"NORAD_CAT_ID":62654,"ELEMENT_SET_NO":999,"REV_AT_EPOCH":8154,"BSTAR":0.00021947864,"MEAN_MOTION_DOT":0.00005257,"MEAN_MOTION_DDOT":0},{"OBJECT_NAME":"BRO-18","OBJECT_ID":"2025-135Y","EPOCH":"2026-07-05T06:21:39.398976","CLASSIFICATION_TYPE":"U","MEAN_MOTION":15.22115642,"ECCENTRICITY":0.00020448,"INCLINATION":97.4648,"RA_OF_ASC_NODE":301.1566,"ARG_OF_PERICENTER":127.0265,"MEAN_ANOMALY":233.1158,"EPHEMERIS_TYPE":0,"NORAD_CAT_ID":64550,"ELEMENT_SET_NO":999,"REV_AT_EPOCH":5762,"BSTAR":0.00025923043,"MEAN_MOTION_DOT":0.00005869,"MEAN_MOTION_DDOT":0},{"OBJECT_NAME":"BRO-17","OBJECT_ID":"2025-276G","EPOCH":"2026-07-05T05:50:27.539520","CLASSIFICATION_TYPE":"U","MEAN_MOTION":15.1811683,"ECCENTRICITY":0.00052361,"INCLINATION":97.418,"RA_OF_ASC_NODE":259.0047,"ARG_OF_PERICENTER":305.5808,"MEAN_ANOMALY":54.4938,"EPHEMERIS_TYPE":0,"NORAD_CAT_ID":66672,"ELEMENT_SET_NO":999,"REV_AT_EPOCH":3313,"BSTAR":0.00023903455,"MEAN_MOTION_DOT":0.00004811,"MEAN_MOTION_DDOT":0},{"OBJECT_NAME":"BRO-20","OBJECT_ID":"2025-276J","EPOCH":"2026-07-05T03:42:37.587744","CLASSIFICATION_TYPE":"U","MEAN_MOTION":15.18285181,"ECCENTRICITY":0.00049019,"INCLINATION":97.4161,"RA_OF_ASC_NODE":258.9063,"ARG_OF_PERICENTER":310.2162,"MEAN_ANOMALY":49.8643,"EPHEMERIS_TYPE":0,"NORAD_CAT_ID":66674,"ELEMENT_SET_NO":999,"REV_AT_EPOCH":3312,"BSTAR":0.00024297215,"MEAN_MOTION_DOT":0.00004915,"MEAN_MOTION_DDOT":0},{"OBJECT_NAME":"BRO-19","OBJECT_ID":"2026-067G","EPOCH":"2026-07-04T07:26:31.737984","CLASSIFICATION_TYPE":"U","MEAN_MOTION":15.18930459,"ECCENTRICITY":0.00020606,"INCLINATION":97.4479,"RA_OF_ASC_NODE":143.5223,"ARG_OF_PERICENTER":117.4318,"MEAN_ANOMALY":242.7126,"EPHEMERIS_TYPE":0,"NORAD_CAT_ID":68422,"ELEMENT_SET_NO":999,"REV_AT_EPOCH":1454,"BSTAR":0.00019842509,"MEAN_MOTION_DOT":0.00004076,"MEAN_MOTION_DDOT":0},{"OBJECT_NAME":"BRO-21","OBJECT_ID":"2026-100AD","EPOCH":"2026-07-04T16:26:12.107904","CLASSIFICATION_TYPE":"U","MEAN_MOTION":15.21585231,"ECCENTRICITY":0.00079881,"INCLINATION":97.4021,"RA_OF_ASC_NODE":83.2927,"ARG_OF_PERICENTER":7.561,"MEAN_ANOMALY":352.5745,"EPHEMERIS_TYPE":0,"NORAD_CAT_ID":69007,"ELEMENT_SET_NO":999,"REV_AT_EPOCH":946,"BSTAR":0.00017416899,"MEAN_MOTION_DOT":0.00003862,"MEAN_MOTION_DDOT":0},{"OBJECT_NAME":"BRO-22","OBJECT_ID":"2026-132C","EPOCH":"2026-07-05T04:00:03.362976","CLASSIFICATION_TYPE":"U","MEAN_MOTION":14.99790448,"ECCENTRICITY":0.00155082,"INCLINATION":97.6837,"RA_OF_ASC_NODE":249.6168,"ARG_OF_PERICENTER":217.5244,"MEAN_ANOMALY":142.4898,"EPHEMERIS_TYPE":0,"NORAD_CAT_ID":69504,"ELEMENT_SET_NO":999,"REV_AT_EPOCH":347,"BSTAR":0.00014332619,"MEAN_MOTION_DOT":0.00001717,"MEAN_MOTION_DDOT":0}]}
